{
  "type": "FeatureCollection",
  "features": [
    {
      "type": "Feature",
      "properties": {
        "norad_id": 34540,
        "name": "IRIDIUM 33 DEB",
        "group": "iridium-33-debris",
        "lat": -80.5858661557689,
        "lon": -76.30777384324801,
        "alt_km": 658.4249086597483,
        "timestamp": "2025-12-14T22:38:41.142489+00:00",
        "meta_object_name": "IRIDIUM 33 DEB",
        "meta_object_id": "1997-051JH",
        "meta_epoch": "2025-12-13T21:13:41.307168",
        "meta_mean_motion": 14.75357802,
        "meta_eccentricity": 0.00166291,
        "meta_inclination": 86.3099,
        "meta_ra_of_asc_node": 307.0836,
        "meta_arg_of_pericenter": 155.1807,
        "meta_mean_anomaly": 262.2011,
        "meta_ephemeris_type": 0,
        "meta_classification_type": "U",
        "meta_norad_cat_id": 34540,
        "meta_element_set_no": 999,
        "meta_rev_at_epoch": 89038,
        "meta_bstar": 0.0017757378,
        "meta_mean_motion_dot": 0.00012101,
        "meta_mean_motion_ddot": 0,
        "tle_line1": "1 34540U 97051JH  25347.88450587  .00012101  00000+0  17757-2 0  9997",
        "tle_line2": "2 34540  86.3099 307.0836 0016629 155.1807 262.2011 14.75357802890385"
      },
      "geometry": {
        "type": "Point",
        "coordinates": [
          -76.30777384324801,
          -80.5858661557689
        ]
      }
    },
    {
      "type": "Feature",
      "properties": {
        "norad_id": 34648,
        "name": "IRIDIUM 33 DEB",
        "group": "iridium-33-debris",
        "lat": -79.98218210391076,
        "lon": -99.88363556071113,
        "alt_km": 732.5547336346117,
        "timestamp": "2025-12-14T22:38:41.142499+00:00",
        "meta_object_name": "IRIDIUM 33 DEB",
        "meta_object_id": "1997-051JZ",
        "meta_epoch": "2025-12-13T19:47:40.836480",
        "meta_mean_motion": 14.11548438,
        "meta_eccentricity": 0.01824148,
        "meta_inclination": 86.3898,
        "meta_ra_of_asc_node": 281.5085,
        "meta_arg_of_pericenter": 295.4937,
        "meta_mean_anomaly": 62.7476,
        "meta_ephemeris_type": 0,
        "meta_classification_type": "U",
        "meta_norad_cat_id": 34648,
        "meta_element_set_no": 999,
        "meta_rev_at_epoch": 84976,
        "meta_bstar": 0.007354752,
        "meta_mean_motion_dot": 0.00015643,
        "meta_mean_motion_ddot": 0,
        "tle_line1": "1 34648U 97051JZ  25347.82477820  .00015643  00000+0  73548-2 0  9993",
        "tle_line2": "2 34648  86.3898 281.5085 0182414 295.4937  62.7476 14.11548438849762"
      },
      "geometry": {
        "type": "Point",
        "coordinates": [
          -99.88363556071113,
          -79.98218210391076
        ]
      }
    },
    {
      "type": "Feature",
      "properties": {
        "norad_id": 34651,
        "name": "IRIDIUM 33 DEB",
        "group": "iridium-33-debris",
        "lat": 86.20093251382197,
        "lon": -142.10346383117627,
        "alt_km": 827.8038494595321,
        "timestamp": "2025-12-14T22:38:41.142509+00:00",
        "meta_object_name": "IRIDIUM 33 DEB",
        "meta_object_id": "1997-051KC",
        "meta_epoch": "2025-12-14T03:41:28.490208",
        "meta_mean_motion": 14.25850075,
        "meta_eccentricity": 0.0142124,
        "meta_inclination": 86.2826,
        "meta_ra_of_asc_node": 139.9759,
        "meta_arg_of_pericenter": 199.4492,
        "meta_mean_anomaly": 160.1246,
        "meta_ephemeris_type": 0,
        "meta_classification_type": "U",
        "meta_norad_cat_id": 34651,
        "meta_element_set_no": 999,
        "meta_rev_at_epoch": 85916,
        "meta_bstar": 0.0035077046,
        "meta_mean_motion_dot": 9.301e-05,
        "meta_mean_motion_ddot": 0,
        "tle_line1": "1 34651U 97051KC  25348.15380197  .00009301  00000+0  35077-2 0  9993",
        "tle_line2": "2 34651  86.2826 139.9759 0142124 199.4492 160.1246 14.25850075859164"
      },
      "geometry": {
        "type": "Point",
        "coordinates": [
          -142.10346383117627,
          86.20093251382197
        ]
      }
    },
    {
      "type": "Feature",
      "properties": {
        "norad_id": 34652,
        "name": "IRIDIUM 33 DEB",
        "group": "iridium-33-debris",
        "lat": 68.7499811919868,
        "lon": -11.482640593943295,
        "alt_km": 693.5140795771777,
        "timestamp": "2025-12-14T22:38:41.142519+00:00",
        "meta_object_name": "IRIDIUM 33 DEB",
        "meta_object_id": "1997-051KD",
        "meta_epoch": "2025-12-14T05:57:05.027904",
        "meta_mean_motion": 14.62079041,
        "meta_eccentricity": 0.00257778,
        "meta_inclination": 86.3313,
        "meta_ra_of_asc_node": 339.3303,
        "meta_arg_of_pericenter": 292.7931,
        "meta_mean_anomaly": 77.4151,
        "meta_ephemeris_type": 0,
        "meta_classification_type": "U",
        "meta_norad_cat_id": 34652,
        "meta_element_set_no": 999,
        "meta_rev_at_epoch": 88506,
        "meta_bstar": 0.0011175888,
        "meta_mean_motion_dot": 5.659e-05,
        "meta_mean_motion_ddot": 0,
        "tle_line1": "1 34652U 97051KD  25348.24797486  .00005659  00000+0  11176-2 0  9993",
        "tle_line2": "2 34652  86.3313 339.3303 0025777 292.7931  77.4151 14.62079041885067"
      },
      "geometry": {
        "type": "Point",
        "coordinates": [
          -11.482640593943295,
          68.7499811919868
        ]
      }
    },
    {
      "type": "Feature",
      "properties": {
        "norad_id": 34690,
        "name": "IRIDIUM 33 DEB",
        "group": "iridium-33-debris",
        "lat": -56.352843328394826,
        "lon": -138.50621460370803,
        "alt_km": 722.4701230651499,
        "timestamp": "2025-12-14T22:38:41.142530+00:00",
        "meta_object_name": "IRIDIUM 33 DEB",
        "meta_object_id": "1997-051KM",
        "meta_epoch": "2025-12-14T03:39:14.126112",
        "meta_mean_motion": 14.55103123,
        "meta_eccentricity": 0.0010693,
        "meta_inclination": 86.3785,
        "meta_ra_of_asc_node": 36.3774,
        "meta_arg_of_pericenter": 25.2522,
        "meta_mean_anomaly": 28.8902,
        "meta_ephemeris_type": 0,
        "meta_classification_type": "U",
        "meta_norad_cat_id": 34690,
        "meta_element_set_no": 999,
        "meta_rev_at_epoch": 88115,
        "meta_bstar": 0.00054232235,
        "meta_mean_motion_dot": 2.362e-05,
        "meta_mean_motion_ddot": 0,
        "tle_line1": "1 34690U 97051KM  25348.15224683  .00002362  00000+0  54232-3 0  9998",
        "tle_line2": "2 34690  86.3785  36.3774 0010693  25.2522  28.8902 14.55103123881155"
      },
      "geometry": {
        "type": "Point",
        "coordinates": [
          -138.50621460370803,
          -56.352843328394826
        ]
      }
    },
    {
      "type": "Feature",
      "properties": {
        "norad_id": 34693,
        "name": "IRIDIUM 33 DEB",
        "group": "iridium-33-debris",
        "lat": 35.33816900067421,
        "lon": 120.10257563134948,
        "alt_km": 478.82020630103216,
        "timestamp": "2025-12-14T22:38:41.142540+00:00",
        "meta_object_name": "IRIDIUM 33 DEB",
        "meta_object_id": "1997-051KQ",
        "meta_epoch": "2025-12-14T08:32:13.204032",
        "meta_mean_motion": 15.28431525,
        "meta_eccentricity": 0.00132971,
        "meta_inclination": 86.3039,
        "meta_ra_of_asc_node": 303.022,
        "meta_arg_of_pericenter": 50.2441,
        "meta_mean_anomaly": 101.7244,
        "meta_ephemeris_type": 0,
        "meta_classification_type": "U",
        "meta_norad_cat_id": 34693,
        "meta_element_set_no": 999,
        "meta_rev_at_epoch": 88939,
        "meta_bstar": 0.0050021575,
        "meta_mean_motion_dot": 0.00141107,
        "meta_mean_motion_ddot": 0,
        "tle_line1": "1 34693U 97051KQ  25348.35570838  .00141107  00000+0  50022-2 0  9992",
        "tle_line2": "2 34693  86.3039 303.0220 0013297  50.2441 101.7244 15.28431525889396"
      },
      "geometry": {
        "type": "Point",
        "coordinates": [
          120.10257563134948,
          35.33816900067421
        ]
      }
    },
    {
      "type": "Feature",
      "properties": {
        "norad_id": 34696,
        "name": "IRIDIUM 33 DEB",
        "group": "iridium-33-debris",
        "lat": 84.37608374449067,
        "lon": 163.85861009505743,
        "alt_km": 647.0361546518152,
        "timestamp": "2025-12-14T22:38:41.142550+00:00",
        "meta_object_name": "IRIDIUM 33 DEB",
        "meta_object_id": "1997-051KT",
        "meta_epoch": "2025-12-14T02:47:44.257344",
        "meta_mean_motion": 14.65206988,
        "meta_eccentricity": 0.00741221,
        "meta_inclination": 86.1864,
        "meta_ra_of_asc_node": 26.882,
        "meta_arg_of_pericenter": 162.7009,
        "meta_mean_anomaly": 252.4985,
        "meta_ephemeris_type": 0,
        "meta_classification_type": "U",
        "meta_norad_cat_id": 34696,
        "meta_element_set_no": 999,
        "meta_rev_at_epoch": 86693,
        "meta_bstar": 0.0047760209,
        "meta_mean_motion_dot": 0.00026862,
        "meta_mean_motion_ddot": 0,
        "tle_line1": "1 34696U 97051KT  25348.11648446  .00026862  00000+0  47760-2 0  9995",
        "tle_line2": "2 34696  86.1864  26.8820 0074122 162.7009 252.4985 14.65206988866936"
      },
      "geometry": {
        "type": "Point",
        "coordinates": [
          163.85861009505743,
          84.37608374449067
        ]
      }
    }
  ]
}